[{"OBJECT_NAME":"ONEWEB-0235","OBJECT_ID":"2021-045E","EPOCH":"2025-09-05T03:23:44.824128","MEAN_MOTION":13.15548846,"ECCENTRICITY":0.0001514,"INCLINATION":87.9047,"RA_OF_ASC_NODE":316.059,"ARG_OF_PERICENTER":83.822,"MEAN_ANOMALY":276.3083,"EPHEMERIS_TYPE":0,"CLASSIFICATION_TYPE":"U","NORAD_CAT_ID":48771,"ELEMENT_SET_NO":999,"REV_AT_EPOCH":20690,"BSTAR":-0.00013104358,"MEAN_MOTION_DOT":-3.7e-7,"MEAN_MOTION_DDOT":0},{"OBJECT_NAME":"ONEWEB-0242","OBJECT_ID":"2021-045F","EPOCH":"2025-09-05T03:14:37.217472","MEAN_MOTION":13.15549933,"ECCENTRICITY":0.00018398,"INCLINATION":87.9056,"RA_OF_ASC_NODE":316.0458,"ARG_OF_PERICENTER":91.2899,"MEAN_ANOMALY":268.8442,"EPHEMERIS_TYPE":0,"CLASSIFICATION_TYPE":"U","NORAD_CAT_ID":48772,"ELEMENT_SET_NO":999,"REV_AT_EPOCH":20694,"BSTAR":-7.744834e-6,"MEAN_MOTION_DOT":1.0e-7,"MEAN_MOTION_DDOT":0},{"OBJECT_NAME":"ONEWEB-0241","OBJECT_ID":"2021-045G","EPOCH":"2025-09-05T04:45:53.310816","MEAN_MOTION":13.15548795,"ECCENTRICITY":0.00014028,"INCLINATION":87.9041,"RA_OF_ASC_NODE":316.082,"ARG_OF_PERICENTER":102.4156,"MEAN_ANOMALY":257.7131,"EPHEMERIS_TYPE":0,"CLASSIFICATION_TYPE":"U","NORAD_CAT_ID":48773,"ELEMENT_SET_NO":999,"REV_AT_EPOCH":20686,"BSTAR":0.00028715934,"MEAN_MOTION_DOT":1.21e-6,"MEAN_MOTION_DDOT":0},{"OBJECT_NAME":"ONEWEB-0243","OBJECT_ID":"2021-045H","EPOCH":"2025-09-05T05:31:31.803744","MEAN_MOTION":13.15548502,"ECCENTRICITY":0.00016028,"INCLINATION":87.9058,"RA_OF_ASC_NODE":316.0769,"ARG_OF_PERICENTER":85.5659,"MEAN_ANOMALY":274.5655,"EPHEMERIS_TYPE":0,"CLASSIFICATION_TYPE":"U","NORAD_CAT_ID":48774,"ELEMENT_SET_NO":999,"REV_AT_EPOCH":20689,"BSTAR":-0.00010204631,"MEAN_MOTION_DOT":-2.6e-7,"MEAN_MOTION_DDOT":0},{"OBJECT_NAME":"ONEWEB-0222","OBJECT_ID":"2021-045J","EPOCH":"2025-09-05T03:18:01.686528","MEAN_MOTION":13.15552533,"ECCENTRICITY":0.0001747,"INCLINATION":87.9053,"RA_OF_ASC_NODE":316.0479,"ARG_OF_PERICENTER":97.6779,"MEAN_ANOMALY":262.455,"EPHEMERIS_TYPE":0,"CLASSIFICATION_TYPE":"U","NORAD_CAT_ID":48775,"ELEMENT_SET_NO":999,"REV_AT_EPOCH":20692,"BSTAR":-0.00015188897,"MEAN_MOTION_DOT":-4.4e-7,"MEAN_MOTION_DDOT":0},{"OBJECT_NAME":"ONEWEB-0244","OBJECT_ID":"2021-045K","EPOCH":"2025-09-05T05:45:13.071168","MEAN_MOTION":13.15548946,"ECCENTRICITY":0.00018799,"INCLINATION":87.9057,"RA_OF_ASC_NODE":316.0095,"ARG_OF_PERICENTER":91.6127,"MEAN_ANOMALY":268.5219,"EPHEMERIS_TYPE":0,"CLASSIFICATION_TYPE":"U","NORAD_CAT_ID":48776,"ELEMENT_SET_NO":999,"REV_AT_EPOCH":20750,"BSTAR":0.00038599421,"MEAN_MOTION_DOT":1.58e-6,"MEAN_MOTION_DDOT":0},{"OBJECT_NAME":"ONEWEB-0247","OBJECT_ID":"2021-045L","EPOCH":"2025-09-05T05:40:39.190944","MEAN_MOTION":13.15549708,"ECCENTRICITY":0.00013034,"INCLINATION":87.9045,"RA_OF_ASC_NODE":316.08,"ARG_OF_PERICENTER":67.0825,"MEAN_ANOMALY":293.0443,"EPHEMERIS_TYPE":0,"CLASSIFICATION_TYPE":"U","NORAD_CAT_ID":48777,"ELEMENT_SET_NO":999,"REV_AT_EPOCH":20694,"BSTAR":-2.8875166e-5,"MEAN_MOTION_DOT":2.0e-8,"MEAN_MOTION_DDOT":0},{"OBJECT_NAME":"ONEWEB-0245","OBJECT_ID":"2021-045M","EPOCH":"2025-09-05T05:33:48.648384","MEAN_MOTION":13.15548765,"ECCENTRICITY":0.00016909,"INCLINATION":87.9044,"RA_OF_ASC_NODE":316.0443,"ARG_OF_PERICENTER":101.7507,"MEAN_ANOMALY":258.3813,"EPHEMERIS_TYPE":0,"CLASSIFICATION_TYPE":"U","NORAD_CAT_ID":48778,"ELEMENT_SET_NO":999,"REV_AT_EPOCH":20691,"BSTAR":-7.2658573e-5,"MEAN_MOTION_DOT":-1.5e-7,"MEAN_MOTION_DDOT":0},{"OBJECT_NAME":"ONEWEB-0229","OBJECT_ID":"2021-045N","EPOCH":"2025-09-05T05:26:57.172704","MEAN_MOTION":13.15549373,"ECCENTRICITY":0.00018331,"INCLINATION":87.9044,"RA_OF_ASC_NODE":316.0453,"ARG_OF_PERICENTER":92.4325,"MEAN_ANOMALY":267.7015,"EPHEMERIS_TYPE":0,"CLASSIFICATION_TYPE":"U","NORAD_CAT_ID":48779,"ELEMENT_SET_NO":999,"REV_AT_EPOCH":20694,"BSTAR":-0.00011457613,"MEAN_MOTION_DOT":-3.0e-7,"MEAN_MOTION_DDOT":0},{"OBJECT_NAME":"ONEWEB-0228","OBJECT_ID":"2021-045P","EPOCH":"2025-09-05T06:15:04.005792","MEAN_MOTION":13.15550177,"ECCENTRICITY":0.00017484,"INCLINATION":87.9054,"RA_OF_ASC_NODE":316.0136,"ARG_OF_PERICENTER":94.9531,"MEAN_ANOMALY":265.1799,"EPHEMERIS_TYPE":0,"CLASSIFICATION_TYPE":"U","NORAD_CAT_ID":48780,"ELEMENT_SET_NO":999,"REV_AT_EPOCH":20686,"BSTAR":0.00051921613,"MEAN_MOTION_DOT":2.08e-6,"MEAN_MOTION_DDOT":0},{"OBJECT_NAME":"ONEWEB-0232","OBJECT_ID":"2021-045Q","EPOCH":"2025-09-05T05:38:22.423200","MEAN_MOTION":13.15548293,"ECCENTRICITY":0.00018681,"INCLINATION":87.9049,"RA_OF_ASC_NODE":316.0114,"ARG_OF_PERICENTER":96.7839,"MEAN_ANOMALY":263.3504,"EPHEMERIS_TYPE":0,"CLASSIFICATION_TYPE":"U","NORAD_CAT_ID":48781,"ELEMENT_SET_NO":999,"REV_AT_EPOCH":20718,"BSTAR":-9.7839773e-5,"MEAN_MOTION_DOT":-2.4e-7,"MEAN_MOTION_DDOT":0},{"OBJECT_NAME":"ONEWEB-0231","OBJECT_ID":"2021-045R","EPOCH":"2025-09-05T03:16:53.374368","MEAN_MOTION":13.15549749,"ECCENTRICITY":0.0001685,"INCLINATION":87.9044,"RA_OF_ASC_NODE":316.083,"ARG_OF_PERICENTER":90.5177,"MEAN_ANOMALY":269.6146,"EPHEMERIS_TYPE":0,"CLASSIFICATION_TYPE":"U","NORAD_CAT_ID":48782,"ELEMENT_SET_NO":999,"REV_AT_EPOCH":20686,"BSTAR":-7.2136743e-5,"MEAN_MOTION_DOT":-1.4e-7,"MEAN_MOTION_DDOT":0},{"OBJECT_NAME":"ONEWEB-0234","OBJECT_ID":"2021-045S","EPOCH":"2025-09-05T06:01:00.181056","MEAN_MOTION":13.1555069,"ECCENTRICITY":0.00021187,"INCLINATION":87.9051,"RA_OF_ASC_NODE":316.029,"ARG_OF_PERICENTER":122.5335,"MEAN_ANOMALY":237.6001,"EPHEMERIS_TYPE":0,"CLASSIFICATION_TYPE":"U","NORAD_CAT_ID":48783,"ELEMENT_SET_NO":999,"REV_AT_EPOCH":20701,"BSTAR":0.00037398443,"MEAN_MOTION_DOT":1.54e-6,"MEAN_MOTION_DDOT":0},{"OBJECT_NAME":"ONEWEB-0238","OBJECT_ID":"2021-045T","EPOCH":"2025-09-05T06:01:23.698272","MEAN_MOTION":13.15548494,"ECCENTRICITY":0.00019648,"INCLINATION":87.9045,"RA_OF_ASC_NODE":316.0251,"ARG_OF_PERICENTER":108.5969,"MEAN_ANOMALY":251.5375,"EPHEMERIS_TYPE":0,"CLASSIFICATION_TYPE":"U","NORAD_CAT_ID":48784,"ELEMENT_SET_NO":999,"REV_AT_EPOCH":20691,"BSTAR":0.00024703925,"MEAN_MOTION_DOT":1.06e-6,"MEAN_MOTION_DDOT":0},{"OBJECT_NAME":"ONEWEB-0240","OBJECT_ID":"2021-045U","EPOCH":"2025-09-05T06:31:59.210112","MEAN_MOTION":13.15548095,"ECCENTRICITY":0.0001518,"INCLINATION":87.9053,"RA_OF_ASC_NODE":316.005,"ARG_OF_PERICENTER":101.2305,"MEAN_ANOMALY":258.8996,"EPHEMERIS_TYPE":0,"CLASSIFICATION_TYPE":"U","NORAD_CAT_ID":48785,"ELEMENT_SET_NO":999,"REV_AT_EPOCH":20694,"BSTAR":0.00041926323,"MEAN_MOTION_DOT":1.71e-6,"MEAN_MOTION_DDOT":0},{"OBJECT_NAME":"ONEWEB-0246","OBJECT_ID":"2021-045V","EPOCH":"2025-09-05T06:24:00.292320","MEAN_MOTION":13.15549176,"ECCENTRICITY":0.00018466,"INCLINATION":87.9057,"RA_OF_ASC_NODE":316.0185,"ARG_OF_PERICENTER":92.4577,"MEAN_ANOMALY":267.6765,"EPHEMERIS_TYPE":0,"CLASSIFICATION_TYPE":"U","NORAD_CAT_ID":48786,"ELEMENT_SET_NO":999,"REV_AT_EPOCH":20681,"BSTAR":0.00027918031,"MEAN_MOTION_DOT":1.18e-6,"MEAN_MOTION_DDOT":0},{"OBJECT_NAME":"ONEWEB-0210","OBJECT_ID":"2021-045W","EPOCH":"2025-09-05T03:57:58.552128","MEAN_MOTION":13.15548642,"ECCENTRICITY":0.00016497,"INCLINATION":87.9055,"RA_OF_ASC_NODE":316.0382,"ARG_OF_PERICENTER":75.8686,"MEAN_ANOMALY":284.2627,"EPHEMERIS_TYPE":0,"CLASSIFICATION_TYPE":"U","NORAD_CAT_ID":48787,"ELEMENT_SET_NO":999,"REV_AT_EPOCH":20684,"BSTAR":0.00050765614,"MEAN_MOTION_DOT":2.04e-6,"MEAN_MOTION_DDOT":0},{"OBJECT_NAME":"ONEWEB-0214","OBJECT_ID":"2021-045X","EPOCH":"2025-09-05T06:00:01.912032","MEAN_MOTION":13.15547966,"ECCENTRICITY":0.00018737,"INCLINATION":87.9053,"RA_OF_ASC_NODE":316.0093,"ARG_OF_PERICENTER":83.0647,"MEAN_ANOMALY":277.0696,"EPHEMERIS_TYPE":0,"CLASSIFICATION_TYPE":"U","NORAD_CAT_ID":48788,"ELEMENT_SET_NO":999,"REV_AT_EPOCH":20682,"BSTAR":0.00040903833,"MEAN_MOTION_DOT":1.67e-6,"MEAN_MOTION_DDOT":0},{"OBJECT_NAME":"ONEWEB-0221","OBJECT_ID":"2021-045Y","EPOCH":"2025-09-05T06:10:18.996384","MEAN_MOTION":13.1554948,"ECCENTRICITY":0.00016386,"INCLINATION":87.9045,"RA_OF_ASC_NODE":316.0342,"ARG_OF_PERICENTER":94.1753,"MEAN_ANOMALY":265.9565,"EPHEMERIS_TYPE":0,"CLASSIFICATION_TYPE":"U","NORAD_CAT_ID":48789,"ELEMENT_SET_NO":999,"REV_AT_EPOCH":20691,"BSTAR":0.00036698897,"MEAN_MOTION_DOT":1.51e-6,"MEAN_MOTION_DDOT":0},{"OBJECT_NAME":"ONEWEB-0213","OBJECT_ID":"2021-045Z","EPOCH":"2025-09-05T05:54:20.721888","MEAN_MOTION":13.15548932,"ECCENTRICITY":0.00016544,"INCLINATION":87.9045,"RA_OF_ASC_NODE":316.0447,"ARG_OF_PERICENTER":90.8288,"MEAN_ANOMALY":269.3032,"EPHEMERIS_TYPE":0,"CLASSIFICATION_TYPE":"U","NORAD_CAT_ID":48790,"ELEMENT_SET_NO":999,"REV_AT_EPOCH":20697,"BSTAR":0.00036794517,"MEAN_MOTION_DOT":1.51e-6,"MEAN_MOTION_DDOT":0},{"OBJECT_NAME":"ONEWEB-0212","OBJECT_ID":"2021-045AA","EPOCH":"2025-09-05T03:31:44.141952","MEAN_MOTION":13.15548475,"ECCENTRICITY":0.00018833,"INCLINATION":87.905,"RA_OF_ASC_NODE":316.047,"ARG_OF_PERICENTER":98.7239,"MEAN_ANOMALY":261.4105,"EPHEMERIS_TYPE":0,"CLASSIFICATION_TYPE":"U","NORAD_CAT_ID":48791,"ELEMENT_SET_NO":999,"REV_AT_EPOCH":20695,"BSTAR":-5.7040797e-5,"MEAN_MOTION_DOT":-9.0e-8,"MEAN_MOTION_DDOT":0},{"OBJECT_NAME":"ONEWEB-0227","OBJECT_ID":"2021-045AB","EPOCH":"2025-09-05T03:30:35.372736","MEAN_MOTION":13.15548568,"ECCENTRICITY":0.00017328,"INCLINATION":87.9044,"RA_OF_ASC_NODE":316.0661,"ARG_OF_PERICENTER":96.4198,"MEAN_ANOMALY":263.7129,"EPHEMERIS_TYPE":0,"CLASSIFICATION_TYPE":"U","NORAD_CAT_ID":48792,"ELEMENT_SET_NO":999,"REV_AT_EPOCH":20690,"BSTAR":-0.00013129157,"MEAN_MOTION_DOT":-3.7e-7,"MEAN_MOTION_DDOT":0},{"OBJECT_NAME":"ONEWEB-0226","OBJECT_ID":"2021-045AC","EPOCH":"2025-09-05T03:21:25.690752","MEAN_MOTION":13.1555852,"ECCENTRICITY":0.00025415,"INCLINATION":87.903,"RA_OF_ASC_NODE":316.0761,"ARG_OF_PERICENTER":88.0928,"MEAN_ANOMALY":272.0494,"EPHEMERIS_TYPE":0,"CLASSIFICATION_TYPE":"U","NORAD_CAT_ID":48793,"ELEMENT_SET_NO":999,"REV_AT_EPOCH":20687,"BSTAR":0.00068561109,"MEAN_MOTION_DOT":2.71e-6,"MEAN_MOTION_DDOT":0}]
